{"spkid": "54235471", "covariance": {"epoch": "2459323.5", "elements": [{"sigma": 5.23745943179214e-08, "name": "e", "value": ".5456345555920911", "title": "eccentricity", "units": null, "label": "e"}, {"sigma": 9.10510987225814e-08, "name": "q", "units": "au", "value": ".7991114968409683", "title": "perihelion distance", "label": "q"}, {"label": "tp", "units": "TDB", "title": "time of perihelion passage", "value": "2459654.174598756059", "sigma": 1.81586493391918e-05, "name": "tp"}, {"units": "deg", "title": "longitude of the ascending node", "value": "250.4999214214698", "name": "om", "sigma": 6.21507856716759e-05, "label": "node"}, {"label": "peri", "sigma": 6.45350386229518e-05, "name": "w", "value": "307.4464107956628", "title": "argument of perihelion", "units": "deg"}, {"sigma": 9.24380747504231e-06, "name": "i", "units": "deg", "title": "inclination", "value": "8.140389441261267", "label": "i"}], "data": [["2.743098129966846E-15", "-4.766870502549649E-15", "-7.578989393304439E-13", "5.362697972163076E-13", "-8.912086661745119E-13", "-2.219421363367515E-14"], ["-4.766870502549649E-15", "8.290302578589268E-15", "1.31966082383327E-12", "-9.324570269422626E-13", "1.546651993922892E-12", "3.809554134809902E-14"], ["-7.578989393304439E-13", "1.31966082383327E-12", "3.29736545823731E-10", "-2.2232598039136E-10", "4.077867698825088E-10", "4.615093779376796E-12"], ["5.362697972163076E-13", "-9.324570269422626E-13", "-2.2232598039136E-10", "3.862720159606598E-9", "-3.95044214671024E-9", "4.650578603998145E-10"], ["-8.912086661745119E-13", "1.546651993922892E-12", "4.077867698825088E-10", "-3.95044214671024E-9", "4.164771210065875E-9", "-4.562142391708054E-10"], ["-2.219421363367515E-14", "3.809554134809902E-14", "4.615093779376796E-12", "4.650578603998145E-10", "-4.562142391708054E-10", "8.544797663564801E-11"]], "labels": ["e", "q", "tp", "node", "peri", "i"]}, "elements": [{"units": null, "title": "eccentricity", "value": ".5452308583452455", "sigma": "5.2172E-8", "name": "e", "label": "e"}, {"sigma": "6.4264E-9", "name": "a", "units": "au", "value": "1.758992477715398", "title": "semi-major axis", "label": "a"}, {"units": "au", "value": ".7999354992678013", "title": "perihelion distance", "name": "q", "sigma": "9.0422E-8", "label": "q"}, {"label": "i", "name": "i", "sigma": "9.2491E-6", "units": "deg", "title": "inclination; angle with respect to x-y ecliptic plane", "value": "8.157427034533281"}, {"name": "om", "sigma": "6.197E-5", "units": "deg", "title": "longitude of the ascending node", "value": "250.2816275822113", "label": "node"}, {"label": "peri", "units": "deg", "title": "argument of perihelion", "value": "307.7734415879932", "name": "w", "sigma": "6.4388E-5"}, {"label": "M", "name": "ma", "sigma": "7.2971E-6", "units": "deg", "title": "mean anomaly", "value": "292.9240647900761"}, {"title": "time of perihelion passage", "value": "2461359.266414125456", "units": "TDB", "name": "tp", "sigma": "1.74E-5", "label": "tp"}, {"label": "period", "units": "d", "value": "852.1075242005408", "title": "sidereal orbital period", "sigma": "4.6697E-6", "name": "per"}, {"units": "deg/d", "title": "mean motion", "value": ".4224818931598534", "sigma": "2.3153E-9", "name": "n", "label": "n"}, {"title": "aphelion distance", "value": "2.718049456162995", "units": "au", "sigma": "9.9302E-9", "name": "ad", "label": "Q"}], "epoch": "2461200.5"}